IRIDIUM 63              
1 25286U 98021B   25354.07927294  .00000298  00000+0  94309-4 0  9999
2 25286  86.3980   4.1341 0002355  86.5298 273.6169 14.36741149450536
IRIDIUM 69              
1 25319U 98026A   25354.56049579  .00000311  00000+0  90150-4 0  9992
2 25319  86.3972  16.6318 0004412 111.1484 249.0187 14.41223449449904
IRIDIUM 71              
1 25320U 98026B   25354.06075414  .00000240  00000+0  68177-4 0  9991
2 25320  86.3971  11.5151 0002698 141.2314 218.9080 14.41322099450364
IRIDIUM 73              
1 25344U 98032C   25354.22168022  .00000475  00000+0  11240-3 0  9998
2 25344  86.4410 327.8087 0003014  87.6000 272.5551 14.51999070457555
IRIDIUM 82              
1 25467U 98051A   25354.53982923  .00031614  00000+0  57896-3 0  9999
2 25467  86.3598  17.1795 0058438 304.0319  55.5396 15.47238319452606
